IRIDIUM 171             
1 43929U 19002H   25164.43470985  .00000031  00000+0  39740-5 0  9998
2 43929  86.3991 147.9913 0002101  78.0990 282.0441 14.34217070336109
IRIDIUM 170             
1 43930U 19002J   25164.44036201  .00000479  00000+0  72040-4 0  9995
2 43930  86.6108 147.7428 0002927  81.1050 279.0499 14.72253178345000
IRIDIUM 167             
1 43931U 19002K   25164.49813682 -.00000022  00000+0 -15035-4 0  9994
2 43931  86.3982 147.7187 0002433  77.5055 282.6413 14.34217202336110
IRIDIUM 181             
1 56726U 23068S   25164.62074287  .00000399  00000+0  11254-3 0  9995
2 56726  86.4529 210.7216 0001990  81.0259 279.1167 14.43311392109278
IRIDIUM 177             
1 56727U 23068T   25164.55581035  .00001423  00000+0  18377-3 0  9994
2 56727  86.1975 143.8518 0002575  83.2041 276.9473 14.80226590111831
IRIDIUM 174             
1 56728U 23068U   25164.42801598  .00001057  00000+0  16368-3 0  9991
2 56728  86.6114 147.8590 0002601 101.1076 259.0434 14.72255378111762
IRIDIUM 178             
1 56729U 23068V   25164.54491030  .00000546  00000+0  68449-4 0  9991
2 56729  86.6569 179.3526 0002539  94.8304 265.3207 14.80231554111833
IRIDIUM 179             
1 56730U 23068W   25164.53955258  .00001071  00000+0  13747-3 0  9993
2 56730  86.6811 187.2138 0002664  90.0744 270.0783 14.80234557111835
